{
    "CCSDS_OMM_VERS": "3.0",
    "COMMENT": "GENERATED VIA SPACE-TRACK.ORG API",
    "CREATION_DATE": "2025-05-22T17:14:14",
    "ORIGINATOR": "18 SPCS",
    "OBJECT_NAME": "BEIDOU 3M6",
    "OBJECT_ID": "2018-018B",
    "CENTER_NAME": "EARTH",
    "REF_FRAME": "TEME",
    "TIME_SYSTEM": "UTC",
    "MEAN_ELEMENT_THEORY": "SGP4",
    "EPOCH": "2025-05-22T08:45:07.484544",
    "MEAN_MOTION": "1.86230985",
    "ECCENTRICITY": "0.00094480",
    "INCLINATION": "56.3065",
    "RA_OF_ASC_NODE": "76.0747",
    "ARG_OF_PERICENTER": "327.4997",
    "MEAN_ANOMALY": "32.4231",
    "EPHEMERIS_TYPE": "0",
    "CLASSIFICATION_TYPE": "U",
    "NORAD_CAT_ID": "43208",
    "ELEMENT_SET_NO": "999",
    "REV_AT_EPOCH": "4946",
    "BSTAR": "0.00000000000000",
    "MEAN_MOTION_DOT": "-0.00000018",
    "MEAN_MOTION_DDOT": "0.0000000000000",
    "SEMIMAJOR_AXIS": "27906.190",
    "PERIOD": "773.233",
    "APOAPSIS": "21554.421",
    "PERIAPSIS": "21501.689",
    "OBJECT_TYPE": "PAYLOAD",
    "RCS_SIZE": "LARGE",
    "COUNTRY_CODE": "PRC",
    "LAUNCH_DATE": "2018-02-12",
    "SITE": "XSC",
    "DECAY_DATE": null,
    "FILE": "4736220",
    "GP_ID": "288144934",
    "TLE_LINE0": "0 BEIDOU 3M6",
    "TLE_LINE1": "1 43208U 18018B   25142.36466996 -.00000018  00000-0  00000-0 0  9998",
    "TLE_LINE2": "2 43208  56.3065  76.0747 0009448 327.4997  32.4231  1.86230985 49461"
}